CIC_OEM_VERS = 2.0
CREATION_DATE = 2024-12-08T21:19:00.259529
ORIGINATOR = ISAE-SUPAERO


META_START
OBJECT_NAME = BLUE1
OBJECT_ID = BLUE1
CENTER_NAME = Earth
REF_FRAME = EME2000
TIME_SYSTEM = UTC
START_TIME = 2024-12-08T14:03:43.191
USEABLE_START_TIME = 2024-12-08T14:03:43.191
USEABLE_STOP_TIME = 2024-12-10T22:53:43.191
STOP_TIME = 2024-12-10T22:53:43.191
INTERPOLATION = lagrange
INTERPOLATION_DEGREE = 5
META_STOP



60652 50623.191 2392.0047999999997 -6511.829 14.658372 -0.9759466800000001 -0.33594016 7.5311743
60652 51223.191 1351.171 -5348.0877 4212.5407000000005 -2.3674418 4.0723006 5.956588399999999
60652 51823.191 -248.89107 -1972.5416000000002 6666.424 -2.7747831 6.7727865000000005 1.9367466
60652 52423.191 -1748.3393 2213.7401 6384.603099999999 -2.0474669 6.6872556 -2.8351645
60652 53023.191 -2538.9081 5503.6234 3504.2983 -0.49648424999999996 3.8959405 -6.4242023
60652 53623.191 -2304.4858 6572.023700000001 -795.43961 1.2498973000000002 -0.45789457 -7.4042187
60652 54223.191 -1141.4466000000002 4992.304400000001 -4774.072 2.49124 -4.6237924999999995 -5.3920518
60652 54823.191 481.60344000000003 1400.0636000000002 -6822.1022 2.7291173 -6.9318504 -1.1903945
60652 55423.191 1908.4907 -2757.2099 -6097.0213 1.8573188 -6.434580700000001 3.5301632
60652 56023.191 2553.0061 -5782.3817 -2870.2563999999998 0.21124046000000002 -3.2826377000000004 6.8452118
60652 56623.191 2141.6027000000004 -6415.010200000001 1544.5085000000001 -1.534008 1.2522478000000001 7.3386734
60652 57223.191 841.89475 -4387.0644 5317.813099999999 -2.6410839999999998 5.259534700000001 4.7879179
60652 57823.191 -805.85973 -548.9112 6895.8629 -2.6552816 7.0743201000000004 0.2916974
60652 58423.191 -2125.7747999999997 3515.8597999999997 5652.8993 -1.5905818999999999 5.9981151 -4.2820644
60652 59023.191 -2585.3897 6158.581 2114.1584 0.11126656 2.503812 -7.096630500000001
60652 59623.191 -2002.1075 6317.3293 -2280.2206 1.7645616 -1.9922422 -7.0369475
60652 60223.191 -612.1071700000001 3930.5978 -5753.4501 2.7066684 -5.685829399999999 -4.1326286
60652 60823.191 1024.5535 -42.13392700000001 -6896.688700000001 2.556658 -7.0922549 0.46212939999999997
60652 61423.191 2243.5872000000004 -3994.8943 -5228.054700000001 1.3598217 -5.6119549 4.9105954
60652 62023.191 2539.679 -6302.6626 -1407.0481000000002 -0.41092421 -1.7988718 7.371518600000001
60652 62623.191 1783.4877 -5998.5365 2997.3536000000004 -2.018551 2.7755228 6.7786219
60652 63223.191 288.35939 -3209.7870000000003 6158.6821 -2.7853336 6.1816753 3.3857502
60652 63823.191 -1326.4852 900.1351 6785.774 -2.4066484 7.0291128 -1.3616274000000002
60652 64423.191 -2402.5398999999998 4646.146 4645.0018 -1.0553922 5.0201087 -5.5177445
60652 65023.191 -2507.6558999999997 6514.9756 620.63189 0.71650801 0.9925525300000001 -7.424021700000001
60652 65623.191 -1601.8238999999999 5757.3458 -3654.9469 2.1971245 -3.4292401 -6.3277261
60652 66223.191 -50.46112 2679.3357 -6453.3019 2.7930166 -6.4726379 -2.6696804000000003
60652 66823.191 1520.5875 -1480.7157 -6633.5353 2.2582289 -6.9056654 2.0975394
60652 67423.191 2470.146 -5033.5561 -4100.229600000001 0.7909465400000001 -4.5090679 6.0517133
60652 68023.191 2400.4314 -6508.063 126.15767 -1.0168216 -0.22467204000000002 7.529317600000001
60652 68623.191 1335.1948 -5283.517900000001 4299.9335 -2.4049391 4.1562011000000005 5.8813628
60652 69223.191 -282.39479 -1875.0208 6694.5335000000005 -2.7937556 6.7951705 1.8215609
60652 69823.191 -1785.7006000000001 2303.7992999999997 6343.4224 -2.041022 6.6412783 -2.942999
60652 70423.191 -2565.2449 5549.9331 3411.5337999999997 -0.46743005 3.8011761 -6.4825628
60652 71023.191 -2309.2915000000003 6555.9539 -902.06302 1.2901486 -0.56394787 -7.390471300000001
60652 71623.191 -1122.6888999999999 4919.8541 -4851.3781 2.5268276999999997 -4.6991898 -5.3112798
60652 72223.191 516.54349 1299.7193 -6838.0818 2.7454502 -6.9459324 -1.0736976999999999
60652 72823.191 1945.3442 -2845.0009 -6043.8501 1.8470269000000001 -6.3797923 3.6356735
60652 73423.191 2576.3869 -5821.2508 -2768.8066000000003 0.17826735 -3.1802464 6.894555
60652 74023.191 2141.763 -6388.7612 1652.4071999999999 -1.5755204 1.3587314 7.3100177
60652 74623.191 819.02362 -4307.428400000001 5387.6092 -2.6736396 5.324573099999999 4.694643
60652 75223.191 -842.24073 -449.66720000000004 6900.018400000001 -2.6662428 7.0725715000000005 0.17413851
60652 75823.191 -2161.01 3594.0260000000003 5591.2074 -1.5759931 5.932333400000001 -4.3764895
60652 76423.191 -2605.4634 6184.3741 2012.4142 0.14549618 2.401055 -7.1312266
60652 76733.0 6617.534000000001 1047.6849 24.44154 -1.2063572 7.6135172 0.26771027
60652 76793.0 6529.4097 1501.6439 40.433217 -1.7293027 7.5121392 0.26512182
60652 76853.0 6410.049900000001 1948.4013 56.230216999999996 -2.2439232000000002 7.375075300000001 0.26127044
60652 76913.0 6260.0773 2385.8593 71.758042 -2.74769 7.2029601 0.25617367
60652 76973.0 6080.3748 2811.9845 86.94398600000001 -3.2393997 6.995878800000001 0.24983236
60652 77033.0 5871.6393 3224.6839 101.71359 -3.7155585 6.7553907 0.24229463
60652 77093.0 5634.858700000001 3621.9822000000004 115.99600000000001 -4.173989400000001 6.4826136 0.23359552
60652 77153.0 5371.159000000001 4001.9775 129.72265 -4.612502900000001 6.1788516 0.22377657
60652 77213.0 5081.7985 4362.853400000001 142.82772 -5.0290094 5.8455464 0.21288427
60652 77273.0 4768.1578 4702.8838 155.24832 -5.421523100000001 5.4842796 0.20097028
60652 77333.0 4431.733200000001 5020.441900000001 166.92485000000002 -5.7881704 5.096765500000001 0.18809124
60652 77393.0 4074.1297999999997 5314.0074 177.80120000000002 -6.1271998000000005 4.684843600000001 0.17430857
60652 77453.0 3697.0541000000003 5582.174 187.82512 -6.4369892 4.2504691999999995 0.15968814
60652 77513.0 3302.3057000000003 5823.655900000001 196.94842000000003 -6.7160546000000005 3.795705 0.14429996
60652 77573.0 2891.7689 6037.293900000001 205.12723000000003 -6.963056300000001 3.3227112 0.12821775
60652 77633.0 2467.4041 6222.0615 212.3222 -7.1768054 2.8337353 0.11151844
60652 77693.0 2031.2381 6377.069 218.49869 -7.3562693 2.3311023 0.09428180500000001
60652 77753.0 1585.355 6501.5684 223.62691 -7.500577100000001 1.8172037 0.076589972
60652 77813.0 1131.8862 6594.9571 227.68207 -7.6090234 1.2944871 0.058527082
60652 77873.0 673.00025 6656.7803 230.64446 -7.6810727 0.7654442800000001 0.040178953999999996
60652 77933.0 210.89278000000002 6686.7343 232.49957999999998 -7.7163619 0.23260002000000002 0.021632794
60652 77993.0 -252.22409 6684.667200000001 233.2382 -7.7147026 -0.30149989 0.0029769116000000003
60652 78053.0 -714.13221 6650.5803 232.8564 -7.676082900000001 -0.83430075 -0.015699586
60652 78113.0 -1172.618 6584.6281 231.35563000000002 -7.6006673000000005 -1.3632511999999999 -0.034307156
60652 78173.0 -1625.4831000000001 6487.1179 228.74271 -7.4887968 -1.8858154999999999 -0.052756235
60652 78233.0 -2070.5547 6358.5082 225.02983 -7.3409876999999994 -2.3994859 -0.070957725
60652 78293.0 -2505.6965 6199.406900000001 220.2345 -7.1579289 -2.9017950000000003 -0.088823521
60652 78353.0 -2928.8183 6010.5684 214.37945000000002 -6.9404793 -3.3903278 -0.10626704
60652 78413.0 -3337.8866000000003 5792.8901 207.49259 -6.6896635 -3.8627333 -0.12320373999999999
60652 78473.0 -3730.9342 5547.4085000000005 199.60679000000002 -6.4066665 -4.316735800000001 -0.13955157
60652 78533.0 -4106.0696 5275.2938 190.75976 -6.0928288 -4.7501457 -0.15523141000000001
60652 78593.0 -4461.4865 4977.8448 180.9939 -5.7496396999999995 -5.1608698 -0.17016736000000002
60652 78653.0 -4795.4719000000005 4656.482900000001 170.35601000000003 -5.3787308000000005 -5.5469209 -0.18428707
60652 78713.0 -5106.415 4312.7453 158.89715 -4.981869 -5.9064274999999995 -0.19752203000000002
60652 78773.0 -5392.8149 3948.2775 146.67235000000002 -4.5609487 -6.237643 -0.20980787
60652 78833.0 -5653.2879 3564.8262999999997 133.74039000000002 -4.1179838 -6.538954700000001 -0.22108465000000002
60652 78893.0 -5886.5745 3164.2305 120.16347999999999 -3.6550979000000003 -6.8088923999999995 -0.23129723000000002
60652 78953.0 -6091.545700000001 2748.4132000000004 106.00701 -3.1745146 -7.0461368 -0.24039558
60652 79013.0 -6267.2085 2319.3713 91.339188 -2.6785462000000004 -7.2495267000000005 -0.24833513
60652 79073.0 -6412.711200000001 1879.1671000000001 76.23074700000001 -2.169582 -7.418064800000001 -0.25507701
60652 79133.0 -6527.3475 1429.9173 60.754563000000005 -1.6500763999999999 -7.5509235 -0.26058827
60652 79193.0 -6610.559700000001 973.7830799999999 44.985309 -1.1225362 -7.6474484 -0.26484203
60652 79253.0 -6661.9421 512.9598100000001 28.999088 -0.58950842 -7.707161600000001 -0.26781755
60652 79313.0 -6681.2424 49.666017999999994 12.873062000000001 -0.053568108 -7.729764100000001 -0.26950031
60652 79373.0 -6668.3638 -413.86717 -3.3149247 0.48269432 -7.715136900000001 -0.26988203
60652 79433.0 -6623.3646 -875.40694 -19.486717000000002 1.0166854 -7.6633423 -0.2689607
60652 79493.0 -6546.4587 -1332.7296000000001 -35.56422800000001 1.5458214000000001 -7.5746239 -0.26674058
60652 79553.0 -6438.0143 -1783.6317 -51.469818000000004 2.0675413 -7.4494056 -0.26323225
60652 79613.0 -6298.5526 -2225.9402999999998 -67.12666800000001 2.5793195 -7.2882901 -0.25845259
60652 79673.0 -6128.7444000000005 -2657.524 -82.459159 3.0786786000000004 -7.0920553 -0.25242467
60652 79733.0 -5929.4079 -3076.3034 -97.393243 3.5632023 -6.8616509 -0.24517769000000003
60652 79793.0 -5701.5037999999995 -3480.2608999999998 -111.8568 4.0305467 -6.598193 -0.23674682000000002
60652 79853.0 -5446.1311 -3867.4509 -125.78 4.4784523 -6.302958800000001 -0.22717298
60652 79913.0 -5164.5216 -4236.009 -139.09562 4.904754700000001 -5.97738 -0.21650262
60652 79973.0 -4858.0339 -4584.161099999999 -151.73941000000002 5.307395400000001 -5.623035600000001 -0.20478747000000003
60652 80033.0 -4528.1464000000005 -4910.2323 -163.65035999999998 5.6844318000000005 -5.2416447 -0.19208430999999998
60652 80093.0 -4176.4506 -5212.654500000001 -174.77100000000002 6.0340467 -4.8350571 -0.17845468
